GLOBALSTAR M057         
1 25943U 99058A   25290.93128053 -.00000083  00000+0  93588-4 0  9991
2 25943  52.0016 359.8555 0002182 258.8789 101.1815 12.24827560181979
GLOBALSTAR M059         
1 25944U 99058B   25291.10914177 -.00000141  00000+0 -67418-3 0  9990
2 25944  52.0007 234.6272 0000442  68.9857 304.1263 11.99987096588806
GLOBALSTAR M056         
1 25945U 99058C   25291.11688972 -.00000133  00000+0 -52774-3 0  9993
2 25945  51.9954 233.4141 0001462  58.2310 315.3420 12.04779221177446
GLOBALSTAR M031         
1 25946U 99058D   25291.23728924 -.00000146  00000+0 -56038-3 0  9990
2 25946  51.9936 118.0436 0002359  79.0677  92.1656 12.16041785179516
GLOBALSTAR M039         
1 25961U 99062A   25290.57718697 -.00000086  00000+0  10009-3 0  9994
2 25961  51.9834 255.9371 0002189 264.3787  95.6830 12.62333685195672
GLOBALSTAR M034         
1 25962U 99062B   25291.11302138 -.00000044  00000+0  57913-3 0  9994
2 25962  51.9890  51.8465 0013353 272.7428 257.7975 11.79449637152892
GLOBALSTAR M029         
1 25963U 99062C   25291.07466205 -.00000062  00000+0  29752-3 0  9996
2 25963  51.9777 122.6503 0002767  22.7540 125.2167 11.99902387183874
GLOBALSTAR M061         
1 25964U 99062D   25291.03572846 -.00000085  00000+0 -80345-4 0  9994
2 25964  51.9785 237.7165 0005430 193.2366 247.2453 11.76777518135642
